STARLINK-31961          
1 59894U 24100K   26068.53213910 -.00001330  00000+0 -38821-4 0  9992
2 59894  43.0038 119.2911 0001320 250.1404 109.9306 15.27573400101218
TEVEL2-6                
1 63215U 25052F   26068.64958975  .00021046  00000+0  70909-3 0  9996
2 63215  97.4016 325.0381 0004769  95.6604 264.5181 15.30760889 54861
